TIANMU-1 07             
1 57399U 23101A   26065.57454230  .00008352  00000+0  29795-3 0  9991
2 57399  97.2728 118.5929 0004609 142.4105 217.7458 15.29118809145964
STARLINK-32771          
1 62573U 25006V   26068.02309429  .00051745  00000+0  18773-2 0  9996
2 62573  43.0037 296.0830 0001733 261.5272  98.5383 15.27570328 64768
